NEUTRON-1               
1 46923U 98067RT  21059.74087150  .00007646  00000-0  13170-3 0  9991
2 46923  51.6425 157.3885 0002291  47.4744 312.6439 15.52115109 17994
1998-067RU              
1 46924U 98067RU  21060.30358100  .00016862  00000-0  25887-3 0  9990
2 46924  51.6418 153.6462 0001711  63.4979 296.6187 15.54398239 18060
LEMUR-2-BAXTER-OLIVER   
1 46925U 98067RV  21060.35250445  .00023035  00000-0  34587-3 0  9996
2 46925  51.6425 153.2342 0002194  71.7072 288.4158 15.54782178 18037
LEMUR-2-DJARA           
1 46926U 98067RW  21060.29867642  .00019442  00000-0  29613-3 0  9994
2 46926  51.6426 153.6224 0001864  53.5247 306.5915 15.54505170 18046
DESCENT                 
1 46927U 98067RX  21059.67972969  .00007579  00000-0  13073-3 0  9995
2 46927  51.6427 157.7289 0002376  68.2673 291.8569 15.52090447 17896
PROGRESS-MS 16          
1 47618U 21011A   21060.55770078  .00001249  00000-0  30810-4 0  9991
2 47618  51.6463 155.0683 0003083  62.8763  62.1321 15.49021001271915
CYGNUS NG-15            
1 47689U 21013A   21060.55770078  .00001249  00000-0  30810-4 0  9991
2 47689  51.6463 155.0683 0003083  62.8763  62.1321 15.49021001271913
