OBJECT_NAME,OBJECT_ID,EPOCH,MEAN_MOTION,ECCENTRICITY,INCLINATION,RA_OF_ASC_NODE,ARG_OF_PERICENTER,MEAN_ANOMALY,EPHEMERIS_TYPE,CLASSIFICATION_TYPE,NORAD_CAT_ID,ELEMENT_SET_NO,REV_AT_EPOCH,BSTAR,MEAN_MOTION_DOT,MEAN_MOTION_DDOT
NEUTRON-1,1998-067RT,2021-02-28T17:46:51.297600,15.52115109,.0002291,51.6425,157.3885,47.4744,312.6439,0,U,46923,999,1799,.1317E-3,.7646E-4,0
1998-067RU,1998-067RU,2021-03-01T07:17:09.398400,15.54398239,.0001711,51.6418,153.6462,63.4979,296.6187,0,U,46924,999,1806,.25887E-3,.16862E-3,0
LEMUR-2-BAXTER-OLIVER,1998-067RV,2021-03-01T08:27:36.384480,15.54782178,.0002194,51.6425,153.2342,71.7072,288.4158,0,U,46925,999,1803,.34587E-3,.23035E-3,0
LEMUR-2-DJARA,1998-067RW,2021-03-01T07:10:05.642688,15.54505170,.0001864,51.6426,153.6224,53.5247,306.5915,0,U,46926,999,1804,.29613E-3,.19442E-3,0
DESCENT,1998-067RX,2021-02-28T16:18:48.645216,15.52090447,.0002376,51.6427,157.7289,68.2673,291.8569,0,U,46927,999,1789,.13073E-3,.7579E-4,0
PROGRESS-MS 16,2021-011A,2021-03-01T13:23:05.347392,15.49021001,.0003083,51.6463,155.0683,62.8763,62.1321,0,U,47618,999,27191,.3081E-4,.1249E-4,0
CYGNUS NG-15,2021-013A,2021-03-01T13:23:05.347392,15.49021001,.0003083,51.6463,155.0683,62.8763,62.1321,0,U,47689,999,27191,.3081E-4,.1249E-4,0
